OBJECT_NAME,OBJECT_ID,EPOCH,MEAN_MOTION,ECCENTRICITY,INCLINATION,RA_OF_ASC_NODE,ARG_OF_PERICENTER,MEAN_ANOMALY,EPHEMERIS_TYPE,CLASSIFICATION_TYPE,NORAD_CAT_ID,ELEMENT_SET_NO,REV_AT_EPOCH,BSTAR,MEAN_MOTION_DOT,MEAN_MOTION_DDOT
JILIN-1 07,2018-008E,2026-07-19T07:07:13.199520,15.35203130,.0006385,97.1768,219.3786,309.9326,50.1357,0,U,43159,999,46992,.13395115E-3,.4502E-4,0
JILIN-1 08,2018-008F,2026-07-19T06:06:36.436032,15.34036403,.00048285,97.1805,218.6173,335.8899,24.2118,0,U,43160,999,46986,.9684788E-4,.3113E-4,0
S-NET D,2018-014G,2026-07-19T04:38:05.432352,15.16937689,.00062222,97.5323,104.7848,267.3920,92.6601,0,U,43186,999,46361,.11588877E-3,.2218E-4,0
S-NET B,2018-014H,2026-07-19T04:55:29.548704,15.16907243,.00068617,97.5329,104.7843,261.2512,98.7944,0,U,43187,999,46361,.12556546E-3,.2407E-4,0
S-NET A,2018-014J,2026-07-19T04:36:13.227264,15.16945824,.00067589,97.5339,104.9860,262.4201,97.6264,0,U,43188,999,46361,.11345461E-3,.2171E-4,0
S-NET C,2018-014K,2026-07-19T05:01:19.460064,15.16898462,.00081476,97.5355,105.0828,253.3295,106.7044,0,U,43189,999,46216,.12822039E-3,.2459E-4,0
PAZ,2018-020A,2026-07-19T07:35:54.750624,15.19151308,.00016782,97.4457,207.2463,88.2173,271.9253,0,U,43215,999,46588,.46144729E-4,.902E-5,0
GOES 17,2018-022A,2026-07-19T05:34:28.242048,1.00270788,.00006526,1.0175,85.2034,66.9788,138.9537,0,U,43226,999,3074,0,-.188E-5,0
LKW-4,2018-025A,2026-07-19T00:21:14.272992,15.64754275,.00036315,97.6362,13.4485,172.5872,187.5441,0,U,43236,999,46500,.31579755E-3,.30612E-3,0
ZHUHAI-1 OVS-02,2018-040B,2026-07-19T07:30:41.110848,15.25407413,.00053773,97.0385,215.6441,125.7153,234.4587,0,U,43440,999,45761,.14547813E-3,.3609E-4,0
ZHUHAI-1 OHS-02,2018-040C,2026-07-19T06:42:43.378272,15.26301883,.00114299,97.0362,222.5843,113.2197,247.0247,0,U,43441,999,11917,.16616966E-3,.4251E-4,0
GAOFEN-6,2018-048A,2026-07-19T07:56:10.489344,14.76385126,.00120366,98.0949,263.0423,70.0671,290.1834,0,U,43484,999,43813,.746608E-5,-.1E-7,0
LUOJIA-1 01,2018-048B,2026-07-19T06:20:59.047584,14.87389361,.00094627,97.8095,277.9378,25.7063,334.4622,0,U,43485,999,43898,.86503133E-4,.728E-5,0
PAKTES 1A,2018-056A,2026-07-19T05:49:12.603936,14.99214173,.00196198,98.1303,358.0974,7.8566,352.2959,0,U,43529,999,43672,.89576773E-4,.1029E-4,0
PRSS-1,2018-056B,2026-07-19T07:52:20.553888,14.82029943,.00012363,97.7800,267.3059,90.0360,270.0995,0,U,43530,999,43319,-.14812644E-4,-.168E-5,0
HAIYANG-1C,2018-068A,2026-07-19T06:25:25.632192,14.34186886,.00108987,98.5175,272.1100,6.4500,353.6823,0,U,43609,999,41168,-.36632057E-4,-.146E-5,0
SSTL S1-4,2018-071A,2026-07-19T06:09:36.618048,14.96210105,.00026397,97.4977,70.5287,92.1995,267.9529,0,U,43618,999,42773,.88979515E-4,.949E-5,0
HAIYANG-2B,2018-081A,2026-07-19T07:08:37.588992,13.79306711,.00010497,99.3290,208.5701,142.1527,217.9699,0,U,43655,999,38935,-.2460584E-4,-.69E-6,0
CFOSAT,2018-083A,2026-07-19T07:04:37.010784,15.16308595,.00016807,97.3618,203.8826,39.2743,320.8612,0,U,43662,999,42730,.85624151E-4,.1594E-4,0
TEN-KOH,2018-084G,2026-07-19T06:42:13.793184,15.03059290,.00096737,98.0768,33.9938,18.8930,341.2651,0,U,43677,999,42098,.10423724E-3,.1339E-4,0
DIWATA-2B,2018-084H,2026-07-19T05:53:10.020768,15.00571738,.00126276,98.1214,37.8577,71.9781,288.2816,0,U,43678,999,42102,.83668074E-4,.992E-5,0
STARS-AO,2018-084J,2026-07-19T03:01:15.656160,15.17368848,.00034657,98.0470,56.0681,72.6867,287.4744,0,U,43679,999,42231,.14383428E-3,.2796E-4,0
AUTCUBE 2,2018-084K,2026-07-19T02:24:37.074240,15.10279099,.00075961,98.0689,47.9680,299.4791,60.5679,0,U,43681,999,42174,.10194231E-3,.1598E-4,0
METOP-C,2018-087A,2026-07-19T05:38:27.288384,14.21503511,.0002114,98.6626,259.2500,88.4750,271.6669,0,U,43689,999,39938,.33354977E-4,.3E-6,0
ES'HAIL 2,2018-090A,2026-07-19T06:27:22.312800,1.00273385,.00023895,0.0181,77.8686,79.9954,261.8224,0,U,43700,999,2799,0,.139E-5,0
MOHAMMED VI-B,2018-095A,2026-07-19T06:52:44.172768,14.77082868,.00017646,97.9541,272.1670,92.6752,267.4660,0,U,43717,999,41292,.1250365E-5,-.42E-6,0
HYSIS,2018-096A,2026-07-19T06:53:34.745280,14.78675397,.00017576,97.9821,266.7811,84.2295,275.9116,0,U,43719,999,41216,.10485687E-3,.717E-5,0
COSMOS 2530 (RODNIK-S 16),2018-097A,2026-07-19T06:05:16.516896,12.42881797,.00187828,82.5123,202.3794,329.8908,30.1091,0,U,43751,999,34627,-.33897989E-3,-.37E-6,0
COSMOS 2531 (RODNIK-S 17),2018-097B,2026-07-19T06:36:12.484800,12.42912939,.00164132,82.5167,203.4353,350.1215,9.9540,0,U,43752,999,34629,-.57802238E-3,-.7E-6,0
