JILIN-1 07              
1 43159U 18008E   26200.29668055  .00004502  00000+0  13395-3 0  9994
2 43159  97.1768 219.3786 0006385 309.9326  50.1357 15.35203130469926
JILIN-1 08              
1 43160U 18008F   26200.25458838  .00003113  00000+0  96848-4 0  9990
2 43160  97.1805 218.6173 0004828 335.8899  24.2118 15.34036403469861
S-NET D                 
1 43186U 18014G   26200.19311843  .00002218  00000+0  11589-3 0  9995
2 43186  97.5323 104.7848 0006222 267.3920  92.6601 15.16937689463615
S-NET B                 
1 43187U 18014H   26200.20520311  .00002407  00000+0  12557-3 0  9996
2 43187  97.5329 104.7843 0006861 261.2512  98.7944 15.16907243463616
S-NET A                 
1 43188U 18014J   26200.19181976  .00002171  00000+0  11345-3 0  9997
2 43188  97.5339 104.9860 0006758 262.4201  97.6264 15.16945824463612
S-NET C                 
1 43189U 18014K   26200.20925301  .00002459  00000+0  12822-3 0  9998
2 43189  97.5355 105.0828 0008147 253.3295 106.7044 15.16898462462165
PAZ                     
1 43215U 18020A   26200.31660591  .00000902  00000+0  46145-4 0  9991
2 43215  97.4457 207.2463 0001678  88.2173 271.9253 15.19151308465882
GOES 17                 
1 43226U 18022A   26200.23227132 -.00000188  00000+0  00000+0 0  9998
2 43226   1.0175  85.2034 0000652  66.9788 138.9537  1.00270788 30745
LKW-4                   
1 43236U 18025A   26200.01474853  .00030612  00000+0  31580-3 0  9997
2 43236  97.6362  13.4485 0003631 172.5872 187.5441 15.64754275465004
ZHUHAI-1 OVS-02         
1 43440U 18040B   26200.31297582  .00003609  00000+0  14548-3 0  9997
2 43440  97.0385 215.6441 0005377 125.7153 234.4587 15.25407413457616
ZHUHAI-1 OHS-02         
1 43441U 18040C   26200.27966873  .00004251  00000+0  16617-3 0  9992
2 43441  97.0362 222.5843 0011429 113.2197 247.0247 15.26301883119174
GAOFEN-6                
1 43484U 18048A   26200.33067696 -.00000001  00000+0  74661-5 0  9994
2 43484  98.0949 263.0423 0012036  70.0671 290.1834 14.76385126438136
LUOJIA-1 01             
1 43485U 18048B   26200.26457231  .00000728  00000+0  86503-4 0  9997
2 43485  97.8095 277.9378 0009462  25.7063 334.4622 14.87389361438987
PAKTES 1A               
1 43529U 18056A   26200.24250699  .00001029  00000+0  89577-4 0  9991
2 43529  98.1303 358.0974 0019619   7.8566 352.2959 14.99214173436721
PRSS-1                  
1 43530U 18056B   26200.32801567 -.00000168  00000+0 -14813-4 0  9994
2 43530  97.7800 267.3059 0001236  90.0360 270.0995 14.82029943433194
HAIYANG-1C              
1 43609U 18068A   26200.26765778 -.00000146  00000+0 -36632-4 0  9999
2 43609  98.5175 272.1100 0010898   6.4500 353.6823 14.34186886411682
SSTL S1-4               
1 43618U 18071A   26200.25667382  .00000949  00000+0  88980-4 0  9996
2 43618  97.4977  70.5287 0002639  92.1995 267.9529 14.96210105427733
HAIYANG-2B              
1 43655U 18081A   26200.29765728 -.00000069  00000+0 -24606-4 0  9995
2 43655  99.3290 208.5701 0001049 142.1527 217.9699 13.79306711389355
CFOSAT                  
1 43662U 18083A   26200.29487281  .00001594  00000+0  85624-4 0  9999
2 43662  97.3618 203.8826 0001680  39.2743 320.8612 15.16308595427300
TEN-KOH                 
1 43677U 18084G   26200.27932631  .00001339  00000+0  10424-3 0  9990
2 43677  98.0768  33.9938 0009673  18.8930 341.2651 15.03059290420985
DIWATA-2B               
1 43678U 18084H   26200.24525487  .00000992  00000+0  83668-4 0  9990
2 43678  98.1214  37.8577 0012627  71.9781 288.2816 15.00571738421024
STARS-AO                
1 43679U 18084J   26200.12587565  .00002796  00000+0  14383-3 0  9994
2 43679  98.0470  56.0681 0003465  72.6867 287.4744 15.17368848422318
AUTCUBE 2               
1 43681U 18084K   26200.10042910  .00001598  00000+0  10194-3 0  9990
2 43681  98.0689  47.9680 0007596 299.4791  60.5679 15.10279099421740
METOP-C                 
1 43689U 18087A   26200.23503806  .00000030  00000+0  33355-4 0  9996
2 43689  98.6626 259.2500 0002114  88.4750 271.6669 14.21503511399384
ES'HAIL 2               
1 43700U 18090A   26200.26900825  .00000139  00000+0  00000+0 0  9995
2 43700   0.0181  77.8686 0002389  79.9954 261.8224  1.00273385 27994
MOHAMMED VI-B           
1 43717U 18095A   26200.28662237 -.00000042  00000+0  12504-5 0  9994
2 43717  97.9541 272.1670 0001764  92.6752 267.4660 14.77082868412923
HYSIS                   
1 43719U 18096A   26200.28720770  .00000717  00000+0  10486-3 0  9997
2 43719  97.9821 266.7811 0001757  84.2295 275.9116 14.78675397412165
COSMOS 2530 (RODNIK-S *)
1 43751U 18097A   26200.25366339 -.00000037  00000+0 -33898-3 0  9997
2 43751  82.5123 202.3794 0018782 329.8908  30.1091 12.42881797346270
COSMOS 2531 (RODNIK-S *)
1 43752U 18097B   26200.27514450 -.00000070  00000+0 -57802-3 0  9997
2 43752  82.5167 203.4353 0016413 350.1215   9.9540 12.42912939346297
